[{"OBJECT_NAME":"ONEWEB-0674","OBJECT_ID":"2023-029AP","EPOCH":"2026-04-01T03:35:05.222400","MEAN_MOTION":13.14503815,"ECCENTRICITY":0.0001671,"INCLINATION":87.8936,"RA_OF_ASC_NODE":305.1032,"ARG_OF_PERICENTER":101.7897,"MEAN_ANOMALY":258.342,"EPHEMERIS_TYPE":0,"CLASSIFICATION_TYPE":"U","NORAD_CAT_ID":55833,"ELEMENT_SET_NO":999,"REV_AT_EPOCH":14929,"BSTAR":-0.00021747,"MEAN_MOTION_DOT":-6.8e-7,"MEAN_MOTION_DDOT":0},{"OBJECT_NAME":"ONEWEB-0675","OBJECT_ID":"2023-029AQ","EPOCH":"2026-04-01T04:15:25.401312","MEAN_MOTION":13.19726889,"ECCENTRICITY":0.0001717,"INCLINATION":87.9194,"RA_OF_ASC_NODE":320.332,"ARG_OF_PERICENTER":73.9257,"MEAN_ANOMALY":286.2065,"EPHEMERIS_TYPE":0,"CLASSIFICATION_TYPE":"U","NORAD_CAT_ID":55834,"ELEMENT_SET_NO":999,"REV_AT_EPOCH":14876,"BSTAR":0.00010834,"MEAN_MOTION_DOT":5.6e-7,"MEAN_MOTION_DDOT":0},{"OBJECT_NAME":"ONEWEB-0720","OBJECT_ID":"2023-029AR","EPOCH":"2026-04-01T09:31:34.904928","MEAN_MOTION":13.19727086,"ECCENTRICITY":0.0002048,"INCLINATION":87.9192,"RA_OF_ASC_NODE":320.2893,"ARG_OF_PERICENTER":85.7523,"MEAN_ANOMALY":274.3844,"EPHEMERIS_TYPE":0,"CLASSIFICATION_TYPE":"U","NORAD_CAT_ID":55835,"ELEMENT_SET_NO":999,"REV_AT_EPOCH":14871,"BSTAR":6.8474e-5,"MEAN_MOTION_DOT":4.0e-7,"MEAN_MOTION_DDOT":0},{"OBJECT_NAME":"ONEWEB-0537","OBJECT_ID":"2023-043A","EPOCH":"2026-04-01T08:40:48.287136","MEAN_MOTION":13.16594694,"ECCENTRICITY":0.000156,"INCLINATION":87.9038,"RA_OF_ASC_NODE":244.04,"ARG_OF_PERICENTER":95.7867,"MEAN_ANOMALY":264.3441,"EPHEMERIS_TYPE":0,"CLASSIFICATION_TYPE":"U","NORAD_CAT_ID":56046,"ELEMENT_SET_NO":999,"REV_AT_EPOCH":14885,"BSTAR":-1.1282e-5,"MEAN_MOTION_DOT":9.0e-8,"MEAN_MOTION_DDOT":0},{"OBJECT_NAME":"ONEWEB-0538","OBJECT_ID":"2023-043B","EPOCH":"2026-04-01T10:21:06.708960","MEAN_MOTION":13.16596131,"ECCENTRICITY":0.0001835,"INCLINATION":87.9037,"RA_OF_ASC_NODE":244.0286,"ARG_OF_PERICENTER":91.5092,"MEAN_ANOMALY":268.6249,"EPHEMERIS_TYPE":0,"CLASSIFICATION_TYPE":"U","NORAD_CAT_ID":56047,"ELEMENT_SET_NO":999,"REV_AT_EPOCH":14887,"BSTAR":0.00024796,"MEAN_MOTION_DOT":1.08e-6,"MEAN_MOTION_DDOT":0},{"OBJECT_NAME":"ONEWEB-0546","OBJECT_ID":"2023-043C","EPOCH":"2026-04-01T10:02:52.705248","MEAN_MOTION":13.16596827,"ECCENTRICITY":0.0001079,"INCLINATION":87.904,"RA_OF_ASC_NODE":244.0298,"ARG_OF_PERICENTER":88.2559,"MEAN_ANOMALY":271.8695,"EPHEMERIS_TYPE":0,"CLASSIFICATION_TYPE":"U","NORAD_CAT_ID":56048,"ELEMENT_SET_NO":999,"REV_AT_EPOCH":14886,"BSTAR":0.00016068,"MEAN_MOTION_DOT":7.4e-7,"MEAN_MOTION_DDOT":0},{"OBJECT_NAME":"ONEWEB-0547","OBJECT_ID":"2023-043D","EPOCH":"2026-04-01T10:00:28.753344","MEAN_MOTION":13.21865559,"ECCENTRICITY":0.0001788,"INCLINATION":87.9178,"RA_OF_ASC_NODE":259.2686,"ARG_OF_PERICENTER":93.8745,"MEAN_ANOMALY":266.2593,"EPHEMERIS_TYPE":0,"CLASSIFICATION_TYPE":"U","NORAD_CAT_ID":56049,"ELEMENT_SET_NO":999,"REV_AT_EPOCH":14808,"BSTAR":0.010519,"MEAN_MOTION_DOT":4.362e-5,"MEAN_MOTION_DDOT":0},{"OBJECT_NAME":"ONEWEB-0548","OBJECT_ID":"2023-043E","EPOCH":"2026-04-01T08:48:47.761344","MEAN_MOTION":13.165957,"ECCENTRICITY":0.0001767,"INCLINATION":87.9035,"RA_OF_ASC_NODE":244.0387,"ARG_OF_PERICENTER":115.5855,"MEAN_ANOMALY":244.5458,"EPHEMERIS_TYPE":0,"CLASSIFICATION_TYPE":"U","NORAD_CAT_ID":56050,"ELEMENT_SET_NO":999,"REV_AT_EPOCH":14885,"BSTAR":-0.00011656,"MEAN_MOTION_DOT":-3.2e-7,"MEAN_MOTION_DDOT":0},{"OBJECT_NAME":"ONEWEB-0549","OBJECT_ID":"2023-043F","EPOCH":"2026-04-01T09:49:54.198912","MEAN_MOTION":13.21815271,"ECCENTRICITY":0.0001921,"INCLINATION":87.9176,"RA_OF_ASC_NODE":259.2812,"ARG_OF_PERICENTER":89.483,"MEAN_ANOMALY":270.6524,"EPHEMERIS_TYPE":0,"CLASSIFICATION_TYPE":"U","NORAD_CAT_ID":56051,"ELEMENT_SET_NO":999,"REV_AT_EPOCH":14808,"BSTAR":0.0033001,"MEAN_MOTION_DOT":1.376e-5,"MEAN_MOTION_DDOT":0},{"OBJECT_NAME":"ONEWEB-0550","OBJECT_ID":"2023-043G","EPOCH":"2026-04-01T11:19:56.320896","MEAN_MOTION":13.21826624,"ECCENTRICITY":0.0001667,"INCLINATION":87.9173,"RA_OF_ASC_NODE":259.2651,"ARG_OF_PERICENTER":99.6523,"MEAN_ANOMALY":260.4799,"EPHEMERIS_TYPE":0,"CLASSIFICATION_TYPE":"U","NORAD_CAT_ID":56052,"ELEMENT_SET_NO":999,"REV_AT_EPOCH":14809,"BSTAR":0.00012912,"MEAN_MOTION_DOT":6.6e-7,"MEAN_MOTION_DDOT":0},{"OBJECT_NAME":"ONEWEB-0551","OBJECT_ID":"2023-043H","EPOCH":"2026-04-01T11:44:47.150304","MEAN_MOTION":13.15550382,"ECCENTRICITY":0.0001957,"INCLINATION":87.8924,"RA_OF_ASC_NODE":274.5359,"ARG_OF_PERICENTER":86.8748,"MEAN_ANOMALY":273.2606,"EPHEMERIS_TYPE":0,"CLASSIFICATION_TYPE":"U","NORAD_CAT_ID":56053,"ELEMENT_SET_NO":999,"REV_AT_EPOCH":14631,"BSTAR":0.00030153,"MEAN_MOTION_DOT":1.26e-6,"MEAN_MOTION_DDOT":0},{"OBJECT_NAME":"ONEWEB-0552","OBJECT_ID":"2023-043J","EPOCH":"2026-04-01T11:12:48.964896","MEAN_MOTION":13.21827791,"ECCENTRICITY":0.0001961,"INCLINATION":87.9173,"RA_OF_ASC_NODE":259.2735,"ARG_OF_PERICENTER":98.7864,"MEAN_ANOMALY":261.3492,"EPHEMERIS_TYPE":0,"CLASSIFICATION_TYPE":"U","NORAD_CAT_ID":56054,"ELEMENT_SET_NO":999,"REV_AT_EPOCH":14809,"BSTAR":3.5031e-5,"MEAN_MOTION_DOT":2.7e-7,"MEAN_MOTION_DDOT":0},{"OBJECT_NAME":"ONEWEB-0553","OBJECT_ID":"2023-043K","EPOCH":"2026-04-01T10:11:59.994816","MEAN_MOTION":13.1659549,"ECCENTRICITY":0.0001315,"INCLINATION":87.9039,"RA_OF_ASC_NODE":244.0304,"ARG_OF_PERICENTER":101.1808,"MEAN_ANOMALY":258.9471,"EPHEMERIS_TYPE":0,"CLASSIFICATION_TYPE":"U","NORAD_CAT_ID":56055,"ELEMENT_SET_NO":999,"REV_AT_EPOCH":14887,"BSTAR":-6.138e-5,"MEAN_MOTION_DOT":-1.1e-7,"MEAN_MOTION_DDOT":0},{"OBJECT_NAME":"ONEWEB-0554","OBJECT_ID":"2023-043L","EPOCH":"2026-04-01T09:53:45.406176","MEAN_MOTION":13.1659534,"ECCENTRICITY":0.000165,"INCLINATION":87.9035,"RA_OF_ASC_NODE":244.0429,"ARG_OF_PERICENTER":110.3253,"MEAN_ANOMALY":249.8055,"EPHEMERIS_TYPE":0,"CLASSIFICATION_TYPE":"U","NORAD_CAT_ID":56056,"ELEMENT_SET_NO":999,"REV_AT_EPOCH":14885,"BSTAR":0.00025398,"MEAN_MOTION_DOT":1.1e-6,"MEAN_MOTION_DDOT":0},{"OBJECT_NAME":"ONEWEB-0555","OBJECT_ID":"2023-043M","EPOCH":"2026-04-01T08:59:02.367744","MEAN_MOTION":13.1659531,"ECCENTRICITY":0.0001164,"INCLINATION":87.9037,"RA_OF_ASC_NODE":244.0357,"ARG_OF_PERICENTER":96.0861,"MEAN_ANOMALY":264.0402,"EPHEMERIS_TYPE":0,"CLASSIFICATION_TYPE":"U","NORAD_CAT_ID":56057,"ELEMENT_SET_NO":999,"REV_AT_EPOCH":14885,"BSTAR":6.6974e-7,"MEAN_MOTION_DOT":1.3e-7,"MEAN_MOTION_DDOT":0},{"OBJECT_NAME":"ONEWEB-0557","OBJECT_ID":"2023-043N","EPOCH":"2026-04-01T09:19:33.527136","MEAN_MOTION":13.16594821,"ECCENTRICITY":0.0001255,"INCLINATION":87.9034,"RA_OF_ASC_NODE":244.0443,"ARG_OF_PERICENTER":147.3617,"MEAN_ANOMALY":212.7592,"EPHEMERIS_TYPE":0,"CLASSIFICATION_TYPE":"U","NORAD_CAT_ID":56058,"ELEMENT_SET_NO":999,"REV_AT_EPOCH":14885,"BSTAR":-9.4685e-5,"MEAN_MOTION_DOT":-2.3e-7,"MEAN_MOTION_DDOT":0},{"OBJECT_NAME":"ONEWEB-0558","OBJECT_ID":"2023-043P","EPOCH":"2026-04-01T11:03:19.961280","MEAN_MOTION":13.21824257,"ECCENTRICITY":0.0002092,"INCLINATION":87.9174,"RA_OF_ASC_NODE":259.268,"ARG_OF_PERICENTER":84.9449,"MEAN_ANOMALY":275.1924,"EPHEMERIS_TYPE":0,"CLASSIFICATION_TYPE":"U","NORAD_CAT_ID":56059,"ELEMENT_SET_NO":999,"REV_AT_EPOCH":14810,"BSTAR":4.4579e-5,"MEAN_MOTION_DOT":3.1e-7,"MEAN_MOTION_DDOT":0},{"OBJECT_NAME":"ONEWEB-0559","OBJECT_ID":"2023-043Q","EPOCH":"2026-04-01T08:57:45.395712","MEAN_MOTION":13.21833091,"ECCENTRICITY":0.0002083,"INCLINATION":87.9173,"RA_OF_ASC_NODE":259.2789,"ARG_OF_PERICENTER":94.4554,"MEAN_ANOMALY":265.6818,"EPHEMERIS_TYPE":0,"CLASSIFICATION_TYPE":"U","NORAD_CAT_ID":56060,"ELEMENT_SET_NO":999,"REV_AT_EPOCH":14810,"BSTAR":0.0018978,"MEAN_MOTION_DOT":7.97e-6,"MEAN_MOTION_DDOT":0},{"OBJECT_NAME":"ONEWEB-0566","OBJECT_ID":"2023-043R","EPOCH":"2026-04-01T10:37:17.501952","MEAN_MOTION":13.21825217,"ECCENTRICITY":0.0001989,"INCLINATION":87.9174,"RA_OF_ASC_NODE":259.2641,"ARG_OF_PERICENTER":91.5833,"MEAN_ANOMALY":268.5529,"EPHEMERIS_TYPE":0,"CLASSIFICATION_TYPE":"U","NORAD_CAT_ID":56061,"ELEMENT_SET_NO":999,"REV_AT_EPOCH":14809,"BSTAR":4.8088e-5,"MEAN_MOTION_DOT":3.3e-7,"MEAN_MOTION_DDOT":0},{"OBJECT_NAME":"ONEWEB-0568","OBJECT_ID":"2023-043S","EPOCH":"2026-04-01T09:44:38.488128","MEAN_MOTION":13.16592881,"ECCENTRICITY":0.0001472,"INCLINATION":87.9037,"RA_OF_ASC_NODE":244.0314,"ARG_OF_PERICENTER":97.372,"MEAN_ANOMALY":262.7578,"EPHEMERIS_TYPE":0,"CLASSIFICATION_TYPE":"U","NORAD_CAT_ID":56062,"ELEMENT_SET_NO":999,"REV_AT_EPOCH":14887,"BSTAR":-1.4442e-6,"MEAN_MOTION_DOT":1.2e-7,"MEAN_MOTION_DDOT":0},{"OBJECT_NAME":"ONEWEB-0574","OBJECT_ID":"2023-043T","EPOCH":"2026-04-01T10:27:47.405376","MEAN_MOTION":13.21831662,"ECCENTRICITY":0.0001608,"INCLINATION":87.9188,"RA_OF_ASC_NODE":259.261,"ARG_OF_PERICENTER":102.431,"MEAN_ANOMALY":257.7004,"EPHEMERIS_TYPE":0,"CLASSIFICATION_TYPE":"U","NORAD_CAT_ID":56063,"ELEMENT_SET_NO":999,"REV_AT_EPOCH":14813,"BSTAR":0.0014796,"MEAN_MOTION_DOT":6.24e-6,"MEAN_MOTION_DDOT":0},{"OBJECT_NAME":"ONEWEB-0575","OBJECT_ID":"2023-043U","EPOCH":"2026-04-01T09:35:30.722496","MEAN_MOTION":13.16595018,"ECCENTRICITY":0.0001425,"INCLINATION":87.9034,"RA_OF_ASC_NODE":244.0294,"ARG_OF_PERICENTER":112.7043,"MEAN_ANOMALY":247.4238,"EPHEMERIS_TYPE":0,"CLASSIFICATION_TYPE":"U","NORAD_CAT_ID":56064,"ELEMENT_SET_NO":999,"REV_AT_EPOCH":14886,"BSTAR":1.8696e-5,"MEAN_MOTION_DOT":2.0e-7,"MEAN_MOTION_DDOT":0},{"OBJECT_NAME":"ONEWEB-0576","OBJECT_ID":"2023-043V","EPOCH":"2026-04-01T09:08:09.842208","MEAN_MOTION":13.16595074,"ECCENTRICITY":0.000156,"INCLINATION":87.9038,"RA_OF_ASC_NODE":244.038,"ARG_OF_PERICENTER":106.439,"MEAN_ANOMALY":253.6913,"EPHEMERIS_TYPE":0,"CLASSIFICATION_TYPE":"U","NORAD_CAT_ID":56065,"ELEMENT_SET_NO":999,"REV_AT_EPOCH":14885,"BSTAR":-8.4776e-5,"MEAN_MOTION_DOT":-2.0e-7,"MEAN_MOTION_DDOT":0},{"OBJECT_NAME":"ONEWEB-0577","OBJECT_ID":"2023-043W","EPOCH":"2026-04-01T09:17:15.866880","MEAN_MOTION":13.16592271,"ECCENTRICITY":0.0001561,"INCLINATION":87.9037,"RA_OF_ASC_NODE":244.0354,"ARG_OF_PERICENTER":128.5575,"MEAN_ANOMALY":231.5695,"EPHEMERIS_TYPE":0,"CLASSIFICATION_TYPE":"U","NORAD_CAT_ID":56066,"ELEMENT_SET_NO":999,"REV_AT_EPOCH":14888,"BSTAR":0.00017668,"MEAN_MOTION_DOT":8.0e-7,"MEAN_MOTION_DDOT":0}]
